[{"OBJECT_NAME":"AL-FARABI 2","OBJECT_ID":"2018-099AZ","EPOCH":"2026-03-09T22:26:01.961088","MEAN_MOTION":15.6820138,"ECCENTRICITY":0.00045442,"INCLINATION":97.4095,"RA_OF_ASC_NODE":144.7856,"ARG_OF_PERICENTER":216.2732,"MEAN_ANOMALY":143.8222,"EPHEMERIS_TYPE":0,"CLASSIFICATION_TYPE":"U","NORAD_CAT_ID":43805,"ELEMENT_SET_NO":999,"REV_AT_EPOCH":39939,"BSTAR":0.0015578554,"MEAN_MOTION_DOT":0.00177018,"MEAN_MOTION_DDOT":0},{"OBJECT_NAME":"STARLINK-11193 [DTC]","OBJECT_ID":"2024-124N","EPOCH":"2026-03-09T11:50:57.137568","MEAN_MOTION":15.69702669,"ECCENTRICITY":0.00032189,"INCLINATION":53.1572,"RA_OF_ASC_NODE":162.1957,"ARG_OF_PERICENTER":161.4533,"MEAN_ANOMALY":198.6603,"EPHEMERIS_TYPE":0,"CLASSIFICATION_TYPE":"U","NORAD_CAT_ID":60195,"ELEMENT_SET_NO":999,"REV_AT_EPOCH":9650,"BSTAR":5.518173e-5,"MEAN_MOTION_DOT":6.098e-5,"MEAN_MOTION_DDOT":0}]
